IRIDIUM 57              
1 25273U 98019B   24296.37338218  .00000925  00000+0  31513-3 0  9995
2 25273  86.3953 244.8110 0002382  87.0303 273.1166 14.35500128390660
IRIDIUM 63              
1 25286U 98021B   24296.20686729  .00000864  00000+0  29012-3 0  9990
2 25286  86.4049 181.8673 0002097  77.0660 283.0771 14.36111434389954
IRIDIUM 69              
1 25319U 98026A   24296.24743729  .00001297  00000+0  40233-3 0  9999
2 25319  86.4046 195.8336 0004596  84.2341 275.9382 14.40420436388802
IRIDIUM 71              
1 25320U 98026B   24296.22080654  .00000958  00000+0  29403-3 0  9999
2 25320  86.4046 190.5872 0003572 116.2293 243.9274 14.40687350389576
IRIDIUM 73              
1 25344U 98032C   24296.55675009  .00001142  00000+0  28375-3 0  9995
2 25344  86.4427 147.7044 0002779  83.0385 277.1136 14.51021929396098
IRIDIUM 82              
1 25467U 98051A   24296.31413523  .00020994  00000+0  89675-3 0  9993
2 25467  86.3762 225.1657 0117750 109.7821 251.6163 15.16557320387710
